GLOBALSTAR M067         
1 32263U 07048A   24227.73247950 -.00000036  00000+0  45760-3 0  9993
2 32263  51.9701 212.6306 0001002  47.0136 123.8497 12.40652338771446
GLOBALSTAR M070         
1 32264U 07048B   24227.61390412 -.00000067  00000+0  20429-3 0  9992
2 32264  51.9778 342.4374 0000974 119.5201 253.7015 12.62297303775931
GLOBALSTAR M066         
1 32265U 07048C   24227.90681897 -.00000066  00000+0  21271-3 0  9990
2 32265  51.9653 204.1176 0001333 257.5021 136.0344 12.58439661777245
GLOBALSTAR M079         
1 37188U 10054A   24227.83059931 -.00000082  00000+0  12180-3 0  9997
2 37188  52.0068 352.3858 0000658  82.6976  53.9257 12.62262474637767
GLOBALSTAR M074         
1 37189U 10054B   24227.67135803 -.00000085  00000+0  10551-3 0  9996
2 37189  52.0043 352.2398 0000765 102.9179 269.8270 12.62271166638356
GLOBALSTAR M076         
1 37190U 10054C   24227.80085736 -.00000083  00000+0  11596-3 0  9990
2 37190  52.0054 351.9912 0001017  80.1090  39.9945 12.62255154638082
GLOBALSTAR M077         
1 37191U 10054D   24227.95712095 -.00000071  00000+0  18245-3 0  9997
2 37191  52.0085 308.2845 0000598 117.0789  54.3752 12.62262398638473
